JILIN-1 07              
1 43159U 18008E   26188.56376952  .00006076  00000+0  18065-3 0  9998
2 43159  97.1770 207.9519 0007597 358.8597   1.2628 15.35077013468123
JILIN-1 08              
1 43160U 18008F   26188.57813775  .00004270  00000+0  13228-3 0  9990
2 43160  97.1805 207.2599 0006263  20.2662 339.8828 15.33950629468074
S-NET D                 
1 43186U 18014G   26188.31932319  .00003124  00000+0  16208-3 0  9991
2 43186  97.5338  92.9845 0006698 318.9542  41.1186 15.16870436461819
S-NET B                 
1 43187U 18014H   26188.33117108  .00003387  00000+0  17555-3 0  9992
2 43187  97.5346  92.9835 0007229 312.7681  47.2943 15.16840815461811
S-NET A                 
1 43188U 18014J   26188.31808938  .00003082  00000+0  15990-3 0  9992
2 43188  97.5354  93.1832 0007136 313.6961  46.3680 15.16878704461815
S-NET C                 
1 43189U 18014K   26187.80740213  .00004116  00000+0  21262-3 0  9995
2 43189  97.5371  92.7531 0008355 305.2688  54.7762 15.16828330460287
PAZ                     
1 43215U 18020A   26188.59204167  .00001570  00000+0  77916-4 0  9991
2 43215  97.4451 195.6876 0001670  86.4405 273.7021 15.19155902464105
GOES 17                 
1 43226U 18022A   26188.55504470 -.00000168  00000+0  00000+0 0  9999
2 43226   0.9858  85.3868 0000610  61.4399 249.0168  1.00271827 30625
LKW-4                   
1 43236U 18025A   26188.50113318  .00032026  00000+0  34003-3 0  9996
2 43236  97.6356   0.9927 0002998 208.1929 151.9167 15.64015525463201
ZHUHAI-1 OVS-02         
1 43440U 18040B   26188.63604531  .00004700  00000+0  18924-3 0  9998
2 43440  97.0387 204.6549 0004299 154.8648 205.2801 15.25308697455830
ZHUHAI-1 OHS-02         
1 43441U 18040C   26188.60952556  .00005617  00000+0  21948-3 0  9997
2 43441  97.0367 211.5899 0010579 148.3036 211.8842 15.26191505117394
GAOFEN-6                
1 43484U 18048A   26188.67354038 -.00000039  00000+0  18954-5 0  9999
2 43484  98.0964 251.3578 0012089 103.7097 256.5459 14.76377504436417
LUOJIA-1 01             
1 43485U 18048B   26188.62622315  .00001936  00000+0  22011-3 0  9994
2 43485  97.8091 266.4863 0010158  59.3617 300.8599 14.87365313437257
PAKTES 1A               
1 43529U 18056A   26188.62919396  .00000483  00000+0  44900-4 0  9998
2 43529  98.1292 345.9880 0020248  43.0279 317.2521 14.99183632434989
PRSS-1                  
1 43530U 18056B   26188.58015087  .00000587  00000+0  80351-4 0  9994
2 43530  97.7806 255.8851 0001340  78.3498 281.7865 14.82022284431452
HAIYANG-1C              
1 43609U 18068A   26188.61675034  .00000201  00000+0  87382-4 0  9996
2 43609  98.5178 260.6293 0011644  39.5770 320.6263 14.34185863410018
SSTL S1-4               
1 43618U 18071A   26188.61996604 -.00000158  00000+0 -92309-5 0  9998
2 43618  97.5004  59.3814 0002153  94.8055 265.3413 14.96198103425996
HAIYANG-2B              
1 43655U 18081A   26188.61891868  .00000182  00000+0  21990-3 0  9997
2 43655  99.3289 197.0668 0000560 156.4600 203.6578 13.79309682387743
CFOSAT                  
1 43662U 18083A   26188.61550507  .00002655  00000+0  13961-3 0  9995
2 43662  97.3610 192.5452 0002076  79.0604 281.0863 15.16505168425533
TEN-KOH                 
1 43677U 18084G   26188.36276108  .00002160  00000+0  16528-3 0  9999
2 43677  98.0746  21.5743 0010202  53.9044 306.3123 15.03014927419199
DIWATA-2B               
1 43678U 18084H   26188.57573698  .00001997  00000+0  16328-3 0  9992
2 43678  98.1217  25.6751 0013075 107.6279 252.6373 15.00543973419270
STARS-AO                
1 43679U 18084J   26188.05764681  .00004120  00000+0  21063-3 0  9993
2 43679  98.0487  43.2544 0003692  96.6046 263.5606 15.17285299420485
AUTCUBE 2               
1 43681U 18084K   26187.11440632  .00004392  00000+0  27281-3 0  9998
2 43681  98.0704  34.2926 0008499 348.3359  11.7671 15.10225719419788
METOP-C                 
1 43689U 18087A   26188.55074233  .00000072  00000+0  52807-4 0  9992
2 43689  98.6634 247.7811 0002199 103.5340 256.6082 14.21517621397722
ES'HAIL 2               
1 43700U 18090A   26188.57792480  .00000159  00000+0  00000+0 0  9992
2 43700   0.0166 300.3831 0002318 211.6334   7.3926  1.00272567 27883
MOHAMMED VI-B           
1 43717U 18095A   26188.56721887  .00001136  00000+0  16811-3 0  9994
2 43717  97.9544 260.6115 0001681  97.2550 262.8851 14.77077718411194
HYSIS                   
1 43719U 18096A   26188.58038561  .00001023  00000+0  14662-3 0  9996
2 43719  97.9826 255.1681 0001855  86.3502 273.7921 14.78662085410438
COSMOS 2530 (RODNIK-S *)
1 43751U 18097A   26188.58155924 -.00000162  00000+0 -12386-2 0  9991
2 43751  82.5123 209.6234 0019308 355.8017   4.2898 12.42881118344827
COSMOS 2531 (RODNIK-S *)
1 43752U 18097B   26188.60333167 -.00000162  00000+0 -12390-2 0  9997
2 43752  82.5169 210.6753 0016946  15.4934 344.6661 12.42912473344848
