OBJECT_NAME,OBJECT_ID,EPOCH,MEAN_MOTION,ECCENTRICITY,INCLINATION,RA_OF_ASC_NODE,ARG_OF_PERICENTER,MEAN_ANOMALY,EPHEMERIS_TYPE,CLASSIFICATION_TYPE,NORAD_CAT_ID,ELEMENT_SET_NO,REV_AT_EPOCH,BSTAR,MEAN_MOTION_DOT,MEAN_MOTION_DDOT
JILIN-1 07,2018-008E,2026-07-07T13:31:49.686528,15.35077013,.00075977,97.1770,207.9519,358.8597,1.2628,0,U,43159,999,46812,.18065341E-3,.6076E-4,0
JILIN-1 08,2018-008F,2026-07-07T13:52:31.101600,15.33950629,.00062638,97.1805,207.2599,20.2662,339.8828,0,U,43160,999,46807,.13228159E-3,.427E-4,0
S-NET D,2018-014G,2026-07-07T07:39:49.523616,15.16870436,.00066981,97.5338,92.9845,318.9542,41.1186,0,U,43186,999,46181,.16207643E-3,.3124E-4,0
S-NET B,2018-014H,2026-07-07T07:56:53.181312,15.16840815,.00072298,97.5346,92.9835,312.7681,47.2943,0,U,43187,999,46181,.17555336E-3,.3387E-4,0
S-NET A,2018-014J,2026-07-07T07:38:02.922432,15.16878704,.0007136,97.5354,93.1832,313.6961,46.3680,0,U,43188,999,46181,.15990158E-3,.3082E-4,0
S-NET C,2018-014K,2026-07-06T19:22:39.544032,15.16828330,.00083554,97.5371,92.7531,305.2688,54.7762,0,U,43189,999,46028,.21262337E-3,.4116E-4,0
PAZ,2018-020A,2026-07-07T14:12:32.400288,15.19155902,.00016709,97.4451,195.6876,86.4405,273.7021,0,U,43215,999,46410,.77916479E-4,.157E-4,0
GOES 17,2018-022A,2026-07-07T13:19:15.862080,1.00271827,.00006103,0.9858,85.3868,61.4399,249.0168,0,U,43226,999,3062,0,-.168E-5,0
LKW-4,2018-025A,2026-07-07T12:01:37.906752,15.64015525,.00029984,97.6356,0.9927,208.1929,151.9167,0,U,43236,999,46320,.34003192E-3,.32026E-3,0
ZHUHAI-1 OVS-02,2018-040B,2026-07-07T15:15:54.314784,15.25308697,.00042996,97.0387,204.6549,154.8648,205.2801,0,U,43440,999,45583,.18923885E-3,.47E-4,0
ZHUHAI-1 OHS-02,2018-040C,2026-07-07T14:37:43.008384,15.26191505,.00105795,97.0367,211.5899,148.3036,211.8842,0,U,43441,999,11739,.21947935E-3,.5617E-4,0
GAOFEN-6,2018-048A,2026-07-07T16:09:53.888832,14.76377504,.0012089,98.0964,251.3578,103.7097,256.5459,0,U,43484,999,43641,.18954E-5,-.39E-6,0
LUOJIA-1 01,2018-048B,2026-07-07T15:01:45.680160,14.87365313,.00101589,97.8091,266.4863,59.3617,300.8599,0,U,43485,999,43725,.22011439E-3,.1936E-4,0
PAKTES 1A,2018-056A,2026-07-07T15:06:02.358144,14.99183632,.00202482,98.1292,345.9880,43.0279,317.2521,0,U,43529,999,43498,.44899567E-4,.483E-5,0
PRSS-1,2018-056B,2026-07-07T13:55:25.035168,14.82022284,.00013404,97.7806,255.8851,78.3498,281.7865,0,U,43530,999,43145,.8035079E-4,.587E-5,0
HAIYANG-1C,2018-068A,2026-07-07T14:48:07.229376,14.34185863,.00116449,98.5178,260.6293,39.5770,320.6263,0,U,43609,999,41001,.87382059E-4,.201E-5,0
SSTL S1-4,2018-071A,2026-07-07T14:52:45.065856,14.96198103,.00021538,97.5004,59.3814,94.8055,265.3413,0,U,43618,999,42599,-.9230927E-5,-.158E-5,0
HAIYANG-2B,2018-081A,2026-07-07T14:51:14.573952,13.79309682,.00005607,99.3289,197.0668,156.4600,203.6578,0,U,43655,999,38774,.21990374E-3,.182E-5,0
CFOSAT,2018-083A,2026-07-07T14:46:19.638048,15.16505168,.00020766,97.3610,192.5452,79.0604,281.0863,0,U,43662,999,42553,.13961023E-3,.2655E-4,0
TEN-KOH,2018-084G,2026-07-07T08:42:22.557312,15.03014927,.00102023,98.0746,21.5743,53.9044,306.3123,0,U,43677,999,41919,.16528274E-3,.216E-4,0
DIWATA-2B,2018-084H,2026-07-07T13:49:03.675072,15.00543973,.00130759,98.1217,25.6751,107.6279,252.6373,0,U,43678,999,41927,.1632807E-3,.1997E-4,0
STARS-AO,2018-084J,2026-07-07T01:23:00.684384,15.17285299,.0003692,98.0487,43.2544,96.6046,263.5606,0,U,43679,999,42048,.21063303E-3,.412E-4,0
AUTCUBE 2,2018-084K,2026-07-06T02:44:44.706048,15.10225719,.0008499,98.0704,34.2926,348.3359,11.7671,0,U,43681,999,41978,.27281E-3,.4392E-4,0
METOP-C,2018-087A,2026-07-07T13:13:04.137312,14.21517621,.00021995,98.6634,247.7811,103.5340,256.6082,0,U,43689,999,39772,.52807471E-4,.72E-6,0
ES'HAIL 2,2018-090A,2026-07-07T13:52:12.702720,1.00272567,.00023182,0.0166,300.3831,211.6334,7.3926,0,U,43700,999,2788,0,.159E-5,0
MOHAMMED VI-B,2018-095A,2026-07-07T13:36:47.710368,14.77077718,.00016819,97.9544,260.6115,97.2550,262.8851,0,U,43717,999,41119,.16810814E-3,.1136E-4,0
HYSIS,2018-096A,2026-07-07T13:55:45.316704,14.78662085,.00018558,97.9826,255.1681,86.3502,273.7921,0,U,43719,999,41043,.14661612E-3,.1023E-4,0
COSMOS 2530 (RODNIK-S 16),2018-097A,2026-07-07T13:57:26.718336,12.42881118,.00193089,82.5123,209.6234,355.8017,4.2898,0,U,43751,999,34482,-.12386214E-2,-.162E-5,0
COSMOS 2531 (RODNIK-S 17),2018-097B,2026-07-07T14:28:47.856288,12.42912473,.00169461,82.5169,210.6753,15.4934,344.6661,0,U,43752,999,34484,-.12389787E-2,-.162E-5,0
